[{"CCSDS_OMM_VERS":"2.0","COMMENT":"GENERATED VIA SPACE-TRACK.ORG API","CREATION_DATE":"2004-08-15T23:35:47","ORIGINATOR":"18 SPCS","OBJECT_NAME":"SL-8 DEB","OBJECT_ID":"1965-020Y","CENTER_NAME":"EARTH","REF_FRAME":"TEME","TIME_SYSTEM":"UTC","MEAN_ELEMENT_THEORY":"SGP4","EPOCH":"1966-01-23T03:23:13.611263","MEAN_MOTION":"15.79429755","ECCENTRICITY":"0.01359790","INCLINATION":"55.9723","RA_OF_ASC_NODE":"241.4339","ARG_OF_PERICENTER":"326.2227","MEAN_ANOMALY":"32.9860","EPHEMERIS_TYPE":"0","CLASSIFICATION_TYPE":"U","NORAD_CAT_ID":"1353","ELEMENT_SET_NO":"999","REV_AT_EPOCH":"4576","BSTAR":"0.00000000000000","MEAN_MOTION_DOT":"0.02780142","MEAN_MOTION_DDOT":"0.0144270000000","SEMIMAJOR_AXIS":"6710.196","PERIOD":"91.172","APOAPSIS":"423.306","PERIAPSIS":"240.816","OBJECT_TYPE":"DEBRIS","RCS_SIZE":null,"COUNTRY_CODE":null,"LAUNCH_DATE":null,"SITE":null,"DECAY_DATE":"1966-01-30","FILE":"33914","GP_ID":"8710582","TLE_LINE0":"0 SL-8 DEB","TLE_LINE1":"1 01353U 65020  Y 66023.14112976  .02780142 +14427-1 +00000-0 0  9996","TLE_LINE2":"2 01353 055.9723 241.4339 0135979 326.2227 032.9860 15.79429755045763"},{"CCSDS_OMM_VERS":"2.0","COMMENT":"GENERATED VIA SPACE-TRACK.ORG API","CREATION_DATE":"2004-08-15T23:35:47","ORIGINATOR":"18 SPCS","OBJECT_NAME":"SL-6 PLAT","OBJECT_ID":"1966-006B","CENTER_NAME":"EARTH","REF_FRAME":"TEME","TIME_SYSTEM":"UTC","MEAN_ELEMENT_THEORY":"SGP4","EPOCH":"1966-01-31T15:55:30.410687","MEAN_MOTION":"16.29720894","ECCENTRICITY":"0.00379780","INCLINATION":"51.8548","RA_OF_ASC_NODE":"315.2919","ARG_OF_PERICENTER":"352.5266","MEAN_ANOMALY":"7.5094","EPHEMERIS_TYPE":"0","CLASSIFICATION_TYPE":"U","NORAD_CAT_ID":"1955","ELEMENT_SET_NO":"999","REV_AT_EPOCH":"3","BSTAR":"0.00000000000000","MEAN_MOTION_DOT":"0.00598124","MEAN_MOTION_DDOT":"0.0045721000000","SEMIMAJOR_AXIS":"6571.431","PERIOD":"88.358","APOAPSIS":"218.253","PERIAPSIS":"168.339","OBJECT_TYPE":"DEBRIS","RCS_SIZE":null,"COUNTRY_CODE":null,"LAUNCH_DATE":null,"SITE":null,"DECAY_DATE":"1966-02-02","FILE":"33914","GP_ID":"8718528","TLE_LINE0":"0 SL-6 PLAT","TLE_LINE1":"1 01955U 66006  B 66031.66354642  .00598124 +45721-2 +00000-0 0  9990","TLE_LINE2":"2 01955 051.8548 315.2919 0037978 352.5266 007.5094 16.29720894000032"},{"CCSDS_OMM_VERS":"2.0","COMMENT":"GENERATED VIA SPACE-TRACK.ORG API","CREATION_DATE":"2004-08-15T23:35:47","ORIGINATOR":"18 SPCS","OBJECT_NAME":"SL-3 DEB","OBJECT_ID":"1966-010C","CENTER_NAME":"EARTH","REF_FRAME":"TEME","TIME_SYSTEM":"UTC","MEAN_ELEMENT_THEORY":"SGP4","EPOCH":"1966-02-10T18:57:58.801824","MEAN_MOTION":"16.14517929","ECCENTRICITY":"0.01604350","INCLINATION":"64.9787","RA_OF_ASC_NODE":"304.4154","ARG_OF_PERICENTER":"30.9134","MEAN_ANOMALY":"330.0949","EPHEMERIS_TYPE":"0","CLASSIFICATION_TYPE":"U","NORAD_CAT_ID":"2005","ELEMENT_SET_NO":"999","REV_AT_EPOCH":"7","BSTAR":"0.00000000000000","MEAN_MOTION_DOT":"0.35390126","MEAN_MOTION_DDOT":"3.6127000000000","SEMIMAJOR_AXIS":"6612.619","PERIOD":"89.190","APOAPSIS":"340.574","PERIAPSIS":"128.394","OBJECT_TYPE":"DEBRIS","RCS_SIZE":null,"COUNTRY_CODE":null,"LAUNCH_DATE":null,"SITE":null,"DECAY_DATE":"1966-02-12","FILE":"33914","GP_ID":"8718975","TLE_LINE0":"0 SL-3 DEB","TLE_LINE1":"1 02005U 66010  C 66041.79026391  .35390126 +3612701 +00000-0 0  9992","TLE_LINE2":"2 02005 064.9787 304.4154 0160435 030.9134 330.0949 16.14517929000070"},{"CCSDS_OMM_VERS":"2.0","COMMENT":"GENERATED VIA SPACE-TRACK.ORG API","CREATION_DATE":"2004-08-15T23:35:47","ORIGINATOR":"18 SPCS","OBJECT_NAME":"SL-3 DEB","OBJECT_ID":"1966-010D","CENTER_NAME":"EARTH","REF_FRAME":"TEME","TIME_SYSTEM":"UTC","MEAN_ELEMENT_THEORY":"SGP4","EPOCH":"1966-02-10T18:58:47.478719","MEAN_MOTION":"16.12795789","ECCENTRICITY":"0.01685930","INCLINATION":"64.9839","RA_OF_ASC_NODE":"304.3929","ARG_OF_PERICENTER":"30.4480","MEAN_ANOMALY":"330.5947","EPHEMERIS_TYPE":"0","CLASSIFICATION_TYPE":"U","NORAD_CAT_ID":"2006","ELEMENT_SET_NO":"999","REV_AT_EPOCH":"7","BSTAR":"0.00000000000000","MEAN_MOTION_DOT":"0.40317964","MEAN_MOTION_DDOT":"4.5573000000000","SEMIMAJOR_AXIS":"6617.326","PERIOD":"89.285","APOAPSIS":"350.754","PERIAPSIS":"127.627","OBJECT_TYPE":"DEBRIS","RCS_SIZE":null,"COUNTRY_CODE":null,"LAUNCH_DATE":null,"SITE":null,"DECAY_DATE":"1966-02-12","FILE":"33914","GP_ID":"8718976","TLE_LINE0":"0 SL-3 DEB","TLE_LINE1":"1 02006U 66010  D 66041.79082730  .40317964 +4557301 +00000-0 0  9992","TLE_LINE2":"2 02006 064.9839 304.3929 0168593 030.4480 330.5947 16.12795789000073"},{"CCSDS_OMM_VERS":"2.0","COMMENT":"GENERATED VIA SPACE-TRACK.ORG API","CREATION_DATE":"2004-08-15T23:35:47","ORIGINATOR":"18 SPCS","OBJECT_NAME":"SL-7 DEB","OBJECT_ID":"1966-011C","CENTER_NAME":"EARTH","REF_FRAME":"TEME","TIME_SYSTEM":"UTC","MEAN_ELEMENT_THEORY":"SGP4","EPOCH":"1966-02-12T19:02:09.059423","MEAN_MOTION":"15.15072076","ECCENTRICITY":"0.04414450","INCLINATION":"48.8616","RA_OF_ASC_NODE":"353.9914","ARG_OF_PERICENTER":"110.8483","MEAN_ANOMALY":"253.9456","EPHEMERIS_TYPE":"0","CLASSIFICATION_TYPE":"U","NORAD_CAT_ID":"2008","ELEMENT_SET_NO":"999","REV_AT_EPOCH":"16","BSTAR":"0.00000000000000","MEAN_MOTION_DOT":"0.01256319","MEAN_MOTION_DDOT":"0.0019438000000","SEMIMAJOR_AXIS":"6898.901","PERIOD":"95.044","APOAPSIS":"825.314","PERIAPSIS":"216.217","OBJECT_TYPE":"DEBRIS","RCS_SIZE":null,"COUNTRY_CODE":null,"LAUNCH_DATE":null,"SITE":null,"DECAY_DATE":"1966-03-27","FILE":"33914","GP_ID":"8718984","TLE_LINE0":"0 SL-7 DEB","TLE_LINE1":"1 02008U 66011  C 66043.79316041  .01256319 +19438-2 +00000-0 0  9998","TLE_LINE2":"2 02008 048.8616 353.9914 0441445 110.8483 253.9456 15.15072076000161"},{"CCSDS_OMM_VERS":"2.0","COMMENT":"GENERATED VIA SPACE-TRACK.ORG API","CREATION_DATE":"2004-08-15T23:35:47","ORIGINATOR":"18 SPCS","OBJECT_NAME":"SL-8 DEB","OBJECT_ID":"1965-020DJ","CENTER_NAME":"EARTH","REF_FRAME":"TEME","TIME_SYSTEM":"UTC","MEAN_ELEMENT_THEORY":"SGP4","EPOCH":"1966-02-15T18:39:47.068704","MEAN_MOTION":"15.80495825","ECCENTRICITY":"0.01585280","INCLINATION":"55.8726","RA_OF_ASC_NODE":"156.9674","ARG_OF_PERICENTER":"32.7820","MEAN_ANOMALY":"328.2555","EPHEMERIS_TYPE":"0","CLASSIFICATION_TYPE":"U","NORAD_CAT_ID":"1562","ELEMENT_SET_NO":"999","REV_AT_EPOCH":"4852","BSTAR":"0.00000000000000","MEAN_MOTION_DOT":"0.01841323","MEAN_MOTION_DDOT":"0.0063902000000","SEMIMAJOR_AXIS":"6707.178","PERIOD":"91.110","APOAPSIS":"435.371","PERIAPSIS":"222.716","OBJECT_TYPE":"DEBRIS","RCS_SIZE":null,"COUNTRY_CODE":null,"LAUNCH_DATE":null,"SITE":null,"DECAY_DATE":"1966-02-22","FILE":"33914","GP_ID":"8713912","TLE_LINE0":"0 SL-8 DEB","TLE_LINE1":"1 01562U 65020 DJ 66046.77762811  .01841323 +63902-2 +00000-0 0  9992","TLE_LINE2":"2 01562 055.8726 156.9674 0158528 032.7820 328.2555 15.80495825048524"},{"CCSDS_OMM_VERS":"2.0","COMMENT":"GENERATED VIA SPACE-TRACK.ORG API","CREATION_DATE":"2004-08-15T23:35:47","ORIGINATOR":"18 SPCS","OBJECT_NAME":"TITAN 3C TRANSTAGE DEB","OBJECT_ID":"1965-082DR","CENTER_NAME":"EARTH","REF_FRAME":"TEME","TIME_SYSTEM":"UTC","MEAN_ELEMENT_THEORY":"SGP4","EPOCH":"1966-02-17T04:21:04.421087","MEAN_MOTION":"15.49038360","ECCENTRICITY":"0.01331640","INCLINATION":"32.5858","RA_OF_ASC_NODE":"353.4767","ARG_OF_PERICENTER":"275.8627","MEAN_ANOMALY":"82.6203","EPHEMERIS_TYPE":"0","CLASSIFICATION_TYPE":"U","NORAD_CAT_ID":"1826","ELEMENT_SET_NO":"999","REV_AT_EPOCH":"1905","BSTAR":"0.00000000000000","MEAN_MOTION_DOT":"0.00320207","MEAN_MOTION_DDOT":"0.0001515200000","SEMIMAJOR_AXIS":"6797.679","PERIOD":"92.960","APOAPSIS":"510.064","PERIAPSIS":"329.023","OBJECT_TYPE":"DEBRIS","RCS_SIZE":null,"COUNTRY_CODE":null,"LAUNCH_DATE":null,"SITE":null,"DECAY_DATE":"1966-03-22","FILE":"33914","GP_ID":"8716475","TLE_LINE0":"0 TITAN 3C TRANSTAGE DEB","TLE_LINE1":"1 01826U 65082 DR 66048.18130117  .00320207 +15152-3 +00000-0 0  9995","TLE_LINE2":"2 01826 032.5858 353.4767 0133164 275.8627 082.6203 15.49038360019055"},{"CCSDS_OMM_VERS":"2.0","COMMENT":"GENERATED VIA SPACE-TRACK.ORG API","CREATION_DATE":"2004-08-15T23:35:47","ORIGINATOR":"18 SPCS","OBJECT_NAME":"TITAN 3C TRANSTAGE DEB","OBJECT_ID":"1965-082EU","CENTER_NAME":"EARTH","REF_FRAME":"TEME","TIME_SYSTEM":"UTC","MEAN_ELEMENT_THEORY":"SGP4","EPOCH":"1966-02-17T04:23:09.217248","MEAN_MOTION":"15.44295275","ECCENTRICITY":"0.01452360","INCLINATION":"32.9932","RA_OF_ASC_NODE":"359.5935","ARG_OF_PERICENTER":"277.4705","MEAN_ANOMALY":"80.8816","EPHEMERIS_TYPE":"0","CLASSIFICATION_TYPE":"U","NORAD_CAT_ID":"1879","ELEMENT_SET_NO":"999","REV_AT_EPOCH":"1912","BSTAR":"0.00000000000000","MEAN_MOTION_DOT":"0.00317123","MEAN_MOTION_DDOT":"0.0001443000000","SEMIMAJOR_AXIS":"6811.590","PERIOD":"93.246","APOAPSIS":"532.384","PERIAPSIS":"334.527","OBJECT_TYPE":"DEBRIS","RCS_SIZE":null,"COUNTRY_CODE":null,"LAUNCH_DATE":null,"SITE":null,"DECAY_DATE":"1966-03-22","FILE":"33914","GP_ID":"8717300","TLE_LINE0":"0 TITAN 3C TRANSTAGE DEB","TLE_LINE1":"1 01879U 65082 EU 66048.18274557  .00317123 +14430-3 +00000-0 0  9991","TLE_LINE2":"2 01879 032.9932 359.5935 0145236 277.4705 080.8816 15.44295275019125"}]